NORAD_CAT_ID,OBJECT_NAME,OBJECT_TYPE,EPOCH,MEAN_MOTION,ECCENTRICITY,INCLINATION,RA_OF_ASC_NODE,ARG_OF_PERICENTER,MEAN_ANOMALY,BSTAR,MEAN_MOTION_DOT,MEAN_MOTION_DDOT,TLE_LINE0,TLE_LINE1,TLE_LINE2,SEMIMAJOR_AXIS,PERIOD,APOGEE,PERIGEE,DECAYED
49141.0,STARLINK-3093,PAYLOAD,2022-04-28 06:00:00,14.98300303,0.000309,70.0002,253.1833,273.3939,349.1869,0.0069278,0.00083497,0.0,0 STARLINK-3093,1 49141U 21082M   22118.25001157  .00083497  00000-0  69278-2 0  9992,2 49141  70.0002 253.1833 0003090 273.3939 349.1869 14.98300303 35754,6950.285,96.109,574.297,570.002,0.0
49141.0,STARLINK-3093,PAYLOAD,2022-04-28 14:00:01,14.98359883,0.0003162,70.0006,252.3428,276.4202,343.6397,-0.0025574,-0.00030499,0.0,0 STARLINK-3093,1 49141U 21082M   22118.58334491 -.00030499  00000-0 -25574-2 0  9995,2 49141  70.0006 252.3428 0003162 276.4202 343.6397 14.98359883 35804,6950.1,96.105,574.163,569.768,0.0
49141.0,STARLINK-3093,PAYLOAD,2022-04-29 14:00:01,14.9833972,0.0003166,70.0009,249.8213,277.2953,335.2419,-0.0020689,-0.00024699,0.0,0 STARLINK-3093,1 49141U 21082M   22119.58334491 -.00024699  00000-0 -20689-2 0  9993,2 49141  70.0009 249.8213 0003166 277.2953 335.2419 14.98339720 35952,6950.163000000001,96.106,574.2280000000002,569.827,0.0
49141.0,STARLINK-3093,PAYLOAD,2022-04-29 22:00:00,14.98338972,0.0003213,70.0006,248.9808,279.9687,330.0557,-0.0025507,-0.00030403,0.0,0 STARLINK-3093,1 49141U 21082M   22119.91667824 -.00030403  00000-0 -25507-2 0  9993,2 49141  70.0006 248.9808 0003213 279.9687 330.0557 14.98338972  3583,6950.165,96.106,574.263,569.797,0.0
49141.0,STARLINK-3093,PAYLOAD,2022-04-30 06:00:00,14.98304764,0.0003177,70.0008,248.1404,273.7129,333.7940000000001,0.0036586,0.00043806,0.0,0 STARLINK-3093,1 49141U 21082M   22120.25001157  .00043806  00000-0  36586-2 0  9991,2 49141  70.0008 248.1404 0003177 273.7129 333.7940 14.98304764 36057,6950.271,96.109,574.344,569.928,0.0
49141.0,STARLINK-3093,PAYLOAD,2022-04-30 14:00:01,14.98315008,0.0003187,70.0012,247.2998,277.2085,327.7709,-0.0011571,-0.00013867,0.0,0 STARLINK-3093,1 49141U 21082M   22120.58334491 -.00013867  00000-0 -11571-2 0  9990,2 49141  70.0012 247.2998 0003187 277.2085 327.7709 14.98315008 36106,6950.239000000001,96.108,574.319,569.889,0.0
49141.0,STARLINK-3093,PAYLOAD,2022-04-30 22:00:00,14.98337308,0.0003183,70.0009,246.4593,279.4028,323.0374,-0.0018743,-0.0002239,0.0,0 STARLINK-3093,1 49141U 21082M   22120.91667824 -.00022390  00000-0 -18743-2 0  9995,2 49141  70.0009 246.4593 0003183 279.4028 323.0374 14.98337308  3581,6950.17,96.107,574.248,569.823,0.0
49141.0,STARLINK-3093,PAYLOAD,2022-05-01 06:00:00,14.982999,0.0003162,70.0011,245.6189,273.117,326.8056,0.0057479,0.00069117,0.0,0 STARLINK-3093,1 49141U 21082M   22121.25001157  .00069117  00000-0  57479-2 0  9999,2 49141  70.0011 245.6189 0003162 273.1170 326.8056 14.98299900 36200,6950.286,96.109,574.349,569.953,0.0
49141.0,STARLINK-3093,PAYLOAD,2022-05-01 14:00:01,14.98347149,0.0003214,70.0014,244.7785,276.4957,320.9,-0.0044075,-0.00052316,0.0,0 STARLINK-3093,1 49141U 21082M   22121.58334491 -.00052316  00000-0 -44075-2 0  9998,2 49141  70.0014 244.7785 0003214 276.4957 320.9000 14.98347149 36250,6950.14,96.106,574.239,569.771,0.0
49141.0,STARLINK-3093,PAYLOAD,2022-05-01 22:00:01,14.98339163,0.0003235,70.0011,243.9379,278.1288,316.8056,-0.0063932,-0.00075579,0.0,0 STARLINK-3093,1 49141U 21082M   22121.91668981 -.00075579  00000-0 -63932-2 0  9998,2 49141  70.0011 243.9379 0003235 278.1288 316.8056 14.98339163  3544,6950.165,96.106,574.278,569.781,0.0
49141.0,STARLINK-3093,PAYLOAD,2022-05-02 06:00:00,14.98269898,0.000329,70.0013,243.0976,272.5715,319.7655,0.0052058,0.00062482,0.0,0 STARLINK-3093,1 49141U 21082M   22122.25001157  .00062482  00000-0  52058-2 0  9996,2 49141  70.0013 243.0976 0003290 272.5715 319.7655 14.98269898 36353,6950.379,96.111,574.53,569.957,0.0
49141.0,STARLINK-3093,PAYLOAD,2022-05-02 14:00:01,14.98301625,0.0003357,70.0015,242.2572,276.4018,313.3751,-0.00020359,-2.52e-05,0.0,0 STARLINK-3093,1 49141U 21082M   22122.58334491 -.00002520  00000-0 -20359-3 0  9991,2 49141  70.0015 242.2572 0003357 276.4018 313.3751 14.98301625  3582,6950.281,96.109,574.479,569.812,0.0
49141.0,STARLINK-3093,PAYLOAD,2022-05-02 22:00:01,14.98329445,0.000335,70.0012,241.4168,277.8838,309.4005,-0.002902,-0.0003455,0.0,0 STARLINK-3093,1 49141U 21082M   22122.91668981 -.00034550  00000-0 -29020-2 0  9993,2 49141  70.0012 241.4168 0003350 277.8838 309.4005 14.98329445 36459,6950.195,96.107,574.388,569.731,0.0
49141.0,STARLINK-3093,PAYLOAD,2022-05-03 14:00:01,14.98316702,0.0003415,70.0015,239.7362,276.699,305.4553,8.929700000000001e-05,9.72e-06,0.0,0 STARLINK-3093,1 49141U 21082M   22123.58334491  .00000972  00000-0  89297-4 0  9996,2 49141  70.0015 239.7362 0003415 276.6990 305.4553 14.98316702 36553,6950.234,96.108,574.4730000000002,569.726,0.0
49141.0,STARLINK-3093,PAYLOAD,2022-05-03 22:00:00,14.9834997,0.000337,70.0011,238.8959,277.9144,301.707,-0.003236,-0.00038514,0.0,0 STARLINK-3093,1 49141U 21082M   22123.91667824 -.00038514  00000-0 -32360-2 0  9994,2 49141  70.0011 238.8959 0003370 277.9144 301.7070 14.98349970  3589,6950.130999999999,96.106,574.3380000000002,569.654,0.0
49141.0,STARLINK-3093,PAYLOAD,2022-05-04 06:00:02,14.9831777,0.0003373,70.0013,238.0556,272.8176,304.3592,0.0043628,0.00052338,0.0,0 STARLINK-3093,1 49141U 21082M   22124.25002315  .00052338  00000-0  43628-2 0  9997,2 49141  70.0013 238.0556 0003373 272.8176 304.3592 14.98317770 36653,6950.231,96.108,574.44,569.751,0.0
49141.0,STARLINK-3093,PAYLOAD,2022-05-04 14:00:01,14.98336587,0.000343,70.0013,237.2153,277.4655,297.1435,0.00072243,8.539e-05,0.0,0 STARLINK-3093,1 49141U 21082M   22124.58334491  .00008539  00000-0  72243-3 0  9996,2 49141  70.0013 237.2153 0003430 277.4655 297.1435 14.98336587  3582,6950.1730000000025,96.107,574.4209999999998,569.654,0.0
49141.0,STARLINK-3093,PAYLOAD,2022-05-04 22:00:01,14.98372733,0.0003357,70.0008,236.3748,278.277,293.886,-0.0034736,-0.00041343,0.0,0 STARLINK-3093,1 49141U 21082M   22124.91668981 -.00041343  00000-0 -34736-2 0  9993,2 49141  70.0008 236.3748 0003357 278.2770 293.8860 14.98372733 36754,6950.061,96.104,574.259,569.5930000000002,0.0
49141.0,STARLINK-3093,PAYLOAD,2022-05-05 14:00:01,14.98328897,0.0003298,70.001,234.6941,278.2218,288.9164,0.00097095,0.00011511,0.0,0 STARLINK-3093,1 49141U 21082M   22125.58334491  .00011511  00000-0  97095-3 0  9993,2 49141  70.0010 234.6941 0003298 278.2218 288.9164 14.98328897  3594,6950.196,96.107,574.3530000000002,569.769,0.0
49141.0,STARLINK-3093,PAYLOAD,2022-05-05 16:00:00,14.98326943,0.0003261,70.001,234.4839,279.5476,16.9649,0.0020788,0.00024797,0.0,0 STARLINK-3093,1 49141U 21082M   22125.66667824  .00024797  00000-0  20788-2 0  9995,2 49141  70.0010 234.4839 0003261 279.5476  16.9649 14.98326943 36861,6950.2019999999975,96.107,574.3340000000002,569.8009999999998,0.0
49141.0,STARLINK-3093,PAYLOAD,2022-05-05 22:00:00,14.98367224,0.0003197,70.0005,233.8536,278.4514,286.1723,-0.006893,-0.00081471,0.0,0 STARLINK-3093,1 49141U 21082M   22125.91667824 -.00081471  00000-0 -68930-2 0  9998,2 49141  70.0005 233.8536 0003197 278.4514 286.1723 14.98367224  3585,6950.078,96.105,574.165,569.721,0.0
49141.0,STARLINK-3093,PAYLOAD,2022-05-06 14:00:01,14.98318424,0.0003228,70.0008,232.1727,277.7729,281.8664,0.0011183,0.00013272,0.0,0 STARLINK-3093,1 49141U 21082M   22126.58334491  .00013272  00000-0  11183-2 0  9993,2 49141  70.0008 232.1727 0003228 277.7729 281.8664 14.98318424  3592,6950.229,96.108,574.337,569.85,0.0
49141.0,STARLINK-3093,PAYLOAD,2022-05-06 16:00:00,14.98311122,0.0003221,70.0008,231.9626,278.9934,10.0162,0.0032326,0.00038673,0.0,0 STARLINK-3093,1 49141U 21082M   22126.66667824  .00038673  00000-0  32326-2 0  9995,2 49141  70.0008 231.9626 0003221 278.9934  10.0162 14.98311122 37018,6950.251,96.108,574.355,569.878,0.0
49141.0,STARLINK-3093,PAYLOAD,2022-05-07 06:00:02,14.98325198,0.000322,70.0006,230.4919,271.6562,283.0017,0.0030131,0.0003604,0.0,0 STARLINK-3093,1 49141U 21082M   22127.25002315  .00036040  00000-0  30131-2 0  9997,2 49141  70.0006 230.4919 0003220 271.6562 283.0017 14.98325198 37100,6950.208000000001,96.107,574.311,569.835,0.0
49141.0,STARLINK-3093,PAYLOAD,2022-05-07 14:00:01,14.98337009,0.0003283,70.0006,229.6514,276.9356,275.1575,6.647e-05,7.000000000000003e-06,0.0,0 STARLINK-3093,1 49141U 21082M   22127.58334491  .00000700  00000-0  66470-4 0  9997,2 49141  70.0006 229.6514 0003283 276.9356 275.1575 14.98337009  3589,6950.170999999999,96.107,574.318,569.754,0.0
49141.0,STARLINK-3093,PAYLOAD,2022-05-07 22:00:00,14.9837292,0.0003247,70.0003,228.8115,276.5861,272.9998,-0.0074899,-0.00088444,0.0,0 STARLINK-3093,1 49141U 21082M   22127.91667824 -.00088444  00000-0 -74899-2 0  9998,2 49141  70.0003 228.8115 0003247 276.5861 272.9998 14.98372920 37202,6950.06,96.104,574.182,569.668,0.0
49141.0,STARLINK-3093,PAYLOAD,2022-05-08 06:00:00,14.98315219,0.00032,70.0006,227.9705,271.2725,275.8001,0.0026265,0.00031375,0.0,0 STARLINK-3093,1 49141U 21082M   22128.25001157  .00031375  00000-0  26265-2 0  9990,2 49141  70.0006 227.9705 0003200 271.2725 275.8001 14.98315219 37250,6950.239000000001,96.108,574.328,569.88,0.0
49141.0,STARLINK-3093,PAYLOAD,2022-05-08 14:00:01,14.98314197,0.0003269,70.0006,227.1301,276.8297,267.7237,0.0014139,0.00016811,0.0,0 STARLINK-3093,1 49141U 21082M   22128.58334491  .00016811  00000-0  14139-2 0  9991,2 49141  70.0006 227.1301 0003269 276.8297 267.7237 14.98314197  3588,6950.2419999999975,96.108,574.379,569.835,0.0
49141.0,STARLINK-3093,PAYLOAD,2022-05-08 22:00:00,14.98350572,0.0003258,70.0004,226.2896,276.1696,265.8539,-0.0036297,-0.0004316,0.0,0 STARLINK-3093,1 49141U 21082M   22128.91667824 -.00043160  00000-0 -36297-2 0  9995,2 49141  70.0004 226.2896 0003258 276.1696 265.8539 14.98350572 37352,6950.129,96.106,574.259,569.73,0.0
